[Satellite]
VERSION=1.1
NAME=NODES 1
NICKNAME=NODES 1
TLE1=1 41478U 98067HY  17186.23574216  .00051982  00000-0  22838-3 0  9998
TLE2=2 41478  51.6304 269.8296 0001922 333.8129  26.2777 15.84047965 64921
